{
  "addresses": [
    {
      "id": "c531",
      "name": "Anu",
      "street": "Chityala",
      "city": "Nalgonda",
      "state": "Telangana",
      "zip": "508114"
    },
    {
      "id": "cecc",
      "name": "raji",
      "street": "Nalgonda",
      "city": "Nalgonda",
      "state": "Telangana",
      "zip": "508114"
    },
    {
      "id": "d2e3",
      "name": "Anu",
      "street": "Chityala",
      "city": "Nalgonda",
      "state": "Telangana",
      "zip": "508114"
    },
    {
      "id": "a76d",
      "name": "Anu",
      "street": "Chityala",
      "city": "Nalgonda",
      "state": "Telangana",
      "zip": "508114"
    },
    {
      "id": "cb65",
      "name": "Anu",
      "street": "Chityala",
      "city": "Nalgonda",
      "state": "Telangana",
      "zip": "508114"
    },
    {
      "id": "5103",
      "name": "Ganii",
      "street": "Nalgonda",
      "city": "Nalgonda",
      "state": "Telangana",
      "zip": "508001"
    },
    {
      "id": "3365",
      "name": "Ganii",
      "street": "Nalgonda",
      "city": "Nalgonda",
      "state": "Telangana",
      "zip": "508001"
    },
    {
      "id": "6a76",
      "name": "Ganii",
      "street": "Nalgonda",
      "city": "Nalgonda",
      "state": "Telangana",
      "zip": "508001"
    },
    {
      "id": "be8d",
      "name": "Ganii",
      "street": "Nalgonda",
      "city": "Nalgonda",
      "state": "Telangana",
      "zip": "508114"
    },
    {
      "id": "7e07",
      "name": "Ganii",
      "street": "Nalgonda",
      "city": "Nalgonda",
      "state": "Telangana",
      "zip": "508001"
    },
    {
      "id": "0368",
      "name": "Ganii",
      "street": "Nalgonda",
      "city": "Nalgonda",
      "state": "Telangana",
      "zip": "508001"
    },
    {
      "id": "7c8e",
      "name": "Ganii",
      "street": "Nalgonda",
      "city": "Nalgonda",
      "state": "Telangana",
      "zip": "508001"
    },
    {
      "id": "f2d6",
      "name": "Ganii",
      "street": "Nalgonda",
      "city": "Nalgonda",
      "state": "Telangana",
      "zip": "508114"
    },
    {
      "id": "e15c",
      "name": "Anu",
      "street": "Chityala",
      "city": "Nalgonda",
      "state": "Telangana",
      "zip": "508114"
    },
    {
      "id": "10fc",
      "name": "raji",
      "street": "Nalgonda",
      "city": "Nalgonda",
      "state": "Telangana",
      "zip": "508001"
    },
    {
      "id": "766e",
      "name": "Ganii",
      "street": "Nalgonda",
      "city": "Nalgonda",
      "state": "Telangana",
      "zip": "508001"
    }
  ]
}